ONEWEB-0228             
1 48780U 21045P   24057.95881037 -.00000042  00000+0 -14666-3 0  9991
2 48780  87.8942  66.6073 0001987  86.6130 273.5228 13.15548512133724
